CCSDS_OMM_VERS = 2.0
CREATION_DATE  = 
ORIGINATOR     = 

OBJECT_NAME    = UNKNOWN
OBJECT_ID      = 
CENTER_NAME    = EARTH
REF_FRAME      = TEME
TIME_SYSTEM    = UTC
MEAN_ELEMENT_THEORY = SGP/SGP4

EPOCH          = 2026-03-07T08:06:28.518048
MEAN_MOTION    = 8.04822229
ECCENTRICITY   = .3508374
INCLINATION    = 64.8650
RA_OF_ASC_NODE = 180.5777
ARG_OF_PERICENTER = 8.8328
MEAN_ANOMALY   = 356.0567

EPHEMERIS_TYPE = 0
CLASSIFICATION_TYPE = U
NORAD_CAT_ID   = 84188
ELEMENT_SET_NO = 999
REV_AT_EPOCH   = 4791
BSTAR          = .9928E-1
MEAN_MOTION_DOT = .195299E-2
MEAN_MOTION_DDOT = 0

CCSDS_OMM_VERS = 2.0
CREATION_DATE  = 
ORIGINATOR     = 

OBJECT_NAME    = UNKNOWN
OBJECT_ID      = 
CENTER_NAME    = EARTH
REF_FRAME      = TEME
TIME_SYSTEM    = UTC
MEAN_ELEMENT_THEORY = SGP/SGP4

EPOCH          = 2026-03-13T07:37:12.050112
MEAN_MOTION    = 3.22160441
ECCENTRICITY   = .6531594
INCLINATION    = 20.3206
RA_OF_ASC_NODE = 221.6515
ARG_OF_PERICENTER = 159.2529
MEAN_ANOMALY   = 249.4086

EPHEMERIS_TYPE = 0
CLASSIFICATION_TYPE = U
NORAD_CAT_ID   = 84232
ELEMENT_SET_NO = 999
REV_AT_EPOCH   = 10758
BSTAR          = .28525E-1
MEAN_MOTION_DOT = .41552E-3
MEAN_MOTION_DDOT = 0

CCSDS_OMM_VERS = 2.0
CREATION_DATE  = 
ORIGINATOR     = 

OBJECT_NAME    = UNKNOWN
OBJECT_ID      = 
CENTER_NAME    = EARTH
REF_FRAME      = TEME
TIME_SYSTEM    = UTC
MEAN_ELEMENT_THEORY = SGP/SGP4

EPOCH          = 2026-03-10T01:26:26.509056
MEAN_MOTION    = 2.62672294
ECCENTRICITY   = .6890329
INCLINATION    = 9.2919
RA_OF_ASC_NODE = 296.2005
ARG_OF_PERICENTER = 171.4122
MEAN_ANOMALY   = 213.1207

EPHEMERIS_TYPE = 0
CLASSIFICATION_TYPE = U
NORAD_CAT_ID   = 84236
ELEMENT_SET_NO = 999
REV_AT_EPOCH   = 11627
BSTAR          = .64621E-2
MEAN_MOTION_DOT = .953E-5
MEAN_MOTION_DDOT = 0

CCSDS_OMM_VERS = 2.0
CREATION_DATE  = 
ORIGINATOR     = 

OBJECT_NAME    = UNKNOWN
OBJECT_ID      = 
CENTER_NAME    = EARTH
REF_FRAME      = TEME
TIME_SYSTEM    = UTC
MEAN_ELEMENT_THEORY = SGP/SGP4

EPOCH          = 2026-03-13T03:49:59.629152
MEAN_MOTION    = 6.22307861
ECCENTRICITY   = .4552969
INCLINATION    = 23.8366
RA_OF_ASC_NODE = 35.0600
ARG_OF_PERICENTER = 97.8781
MEAN_ANOMALY   = 314.4395

EPHEMERIS_TYPE = 0
CLASSIFICATION_TYPE = U
NORAD_CAT_ID   = 84292
ELEMENT_SET_NO = 999
REV_AT_EPOCH   = 23369
BSTAR          = .24343E-2
MEAN_MOTION_DOT = .39E-4
MEAN_MOTION_DDOT = 0

CCSDS_OMM_VERS = 2.0
CREATION_DATE  = 
ORIGINATOR     = 

OBJECT_NAME    = UNKNOWN
OBJECT_ID      = 
CENTER_NAME    = EARTH
REF_FRAME      = TEME
TIME_SYSTEM    = UTC
MEAN_ELEMENT_THEORY = SGP/SGP4

EPOCH          = 2026-03-11T04:21:51.922944
MEAN_MOTION    = 12.67497465
ECCENTRICITY   = .0050222
INCLINATION    = 101.7202
RA_OF_ASC_NODE = 220.4815
ARG_OF_PERICENTER = 220.6149
MEAN_ANOMALY   = 320.5627

EPHEMERIS_TYPE = 0
CLASSIFICATION_TYPE = U
NORAD_CAT_ID   = 84406
ELEMENT_SET_NO = 999
REV_AT_EPOCH   = 6049
BSTAR          = .4375E-2
MEAN_MOTION_DOT = .797E-5
MEAN_MOTION_DDOT = 0

CCSDS_OMM_VERS = 2.0
CREATION_DATE  = 
ORIGINATOR     = 

OBJECT_NAME    = UNKNOWN
OBJECT_ID      = 
CENTER_NAME    = EARTH
REF_FRAME      = TEME
TIME_SYSTEM    = UTC
MEAN_ELEMENT_THEORY = SGP/SGP4

EPOCH          = 2026-03-13T07:18:19.588032
MEAN_MOTION    = 2.05799378
ECCENTRICITY   = .7212498
INCLINATION    = 19.4457
RA_OF_ASC_NODE = 295.8578
ARG_OF_PERICENTER = 110.4352
MEAN_ANOMALY   = 335.5464

EPHEMERIS_TYPE = 0
CLASSIFICATION_TYPE = U
NORAD_CAT_ID   = 84407
ELEMENT_SET_NO = 999
REV_AT_EPOCH   = 7773
BSTAR          = .13714E-1
MEAN_MOTION_DOT = .308E-5
MEAN_MOTION_DDOT = 0

CCSDS_OMM_VERS = 2.0
CREATION_DATE  = 
ORIGINATOR     = 

OBJECT_NAME    = UNKNOWN
OBJECT_ID      = 
CENTER_NAME    = EARTH
REF_FRAME      = TEME
TIME_SYSTEM    = UTC
MEAN_ELEMENT_THEORY = SGP/SGP4

EPOCH          = 2026-03-13T08:11:28.708800
MEAN_MOTION    = 2.19863842
ECCENTRICITY   = .7117532
INCLINATION    = 18.0153
RA_OF_ASC_NODE = 128.1545
ARG_OF_PERICENTER = 77.9373
MEAN_ANOMALY   = 347.6101

EPHEMERIS_TYPE = 0
CLASSIFICATION_TYPE = U
NORAD_CAT_ID   = 84575
ELEMENT_SET_NO = 999
REV_AT_EPOCH   = 6745
BSTAR          = .13512E-2
MEAN_MOTION_DOT = -.117E-5
MEAN_MOTION_DDOT = 0

CCSDS_OMM_VERS = 2.0
CREATION_DATE  = 
ORIGINATOR     = 

OBJECT_NAME    = UNKNOWN
OBJECT_ID      = 
CENTER_NAME    = EARTH
REF_FRAME      = TEME
TIME_SYSTEM    = UTC
MEAN_ELEMENT_THEORY = SGP/SGP4

EPOCH          = 2026-03-13T12:41:21.819264
MEAN_MOTION    = 3.00149408
ECCENTRICITY   = .6575943
INCLINATION    = 2.0521
RA_OF_ASC_NODE = 189.4689
ARG_OF_PERICENTER = 159.1424
MEAN_ANOMALY   = 112.1292

EPHEMERIS_TYPE = 0
CLASSIFICATION_TYPE = U
NORAD_CAT_ID   = 84932
ELEMENT_SET_NO = 999
REV_AT_EPOCH   = 13450
BSTAR          = .55822E-2
MEAN_MOTION_DOT = .595E-5
MEAN_MOTION_DDOT = 0

CCSDS_OMM_VERS = 2.0
CREATION_DATE  = 
ORIGINATOR     = 

OBJECT_NAME    = UNKNOWN
OBJECT_ID      = 
CENTER_NAME    = EARTH
REF_FRAME      = TEME
TIME_SYSTEM    = UTC
MEAN_ELEMENT_THEORY = SGP/SGP4

EPOCH          = 2026-03-12T18:12:28.154880
MEAN_MOTION    = 14.41364565
ECCENTRICITY   = .0045534
INCLINATION    = 98.4345
RA_OF_ASC_NODE = 46.5379
ARG_OF_PERICENTER = 251.5764
MEAN_ANOMALY   = 229.5772

EPHEMERIS_TYPE = 0
CLASSIFICATION_TYPE = U
NORAD_CAT_ID   = 85004
ELEMENT_SET_NO = 999
REV_AT_EPOCH   = 64386
BSTAR          = .4268E-3
MEAN_MOTION_DOT = .1355E-4
MEAN_MOTION_DDOT = 0

CCSDS_OMM_VERS = 2.0
CREATION_DATE  = 
ORIGINATOR     = 

OBJECT_NAME    = UNKNOWN
OBJECT_ID      = 
CENTER_NAME    = EARTH
REF_FRAME      = TEME
TIME_SYSTEM    = UTC
MEAN_ELEMENT_THEORY = SGP/SGP4

EPOCH          = 2026-03-11T02:29:12.043104
MEAN_MOTION    = 13.75268917
ECCENTRICITY   = .0026932
INCLINATION    = 99.2472
RA_OF_ASC_NODE = 294.3168
ARG_OF_PERICENTER = 21.2025
MEAN_ANOMALY   = 130.9894

EPHEMERIS_TYPE = 0
CLASSIFICATION_TYPE = U
NORAD_CAT_ID   = 85010
ELEMENT_SET_NO = 999
REV_AT_EPOCH   = 61606
BSTAR          = .12107E-2
MEAN_MOTION_DOT = .1121E-4
MEAN_MOTION_DDOT = 0

CCSDS_OMM_VERS = 2.0
CREATION_DATE  = 
ORIGINATOR     = 

OBJECT_NAME    = UNKNOWN
OBJECT_ID      = 
CENTER_NAME    = EARTH
REF_FRAME      = TEME
TIME_SYSTEM    = UTC
MEAN_ELEMENT_THEORY = SGP/SGP4

EPOCH          = 2026-03-10T03:11:53.192256
MEAN_MOTION    = 14.62416904
ECCENTRICITY   = .0014237
INCLINATION    = 74.0470
RA_OF_ASC_NODE = 230.9475
ARG_OF_PERICENTER = 119.5179
MEAN_ANOMALY   = 240.7409

EPHEMERIS_TYPE = 0
CLASSIFICATION_TYPE = U
NORAD_CAT_ID   = 85015
ELEMENT_SET_NO = 999
REV_AT_EPOCH   = 65538
BSTAR          = .16375E-3
MEAN_MOTION_DOT = .8E-5
MEAN_MOTION_DDOT = 0

CCSDS_OMM_VERS = 2.0
CREATION_DATE  = 
ORIGINATOR     = 

OBJECT_NAME    = UNKNOWN
OBJECT_ID      = 
CENTER_NAME    = EARTH
REF_FRAME      = TEME
TIME_SYSTEM    = UTC
MEAN_ELEMENT_THEORY = SGP/SGP4

EPOCH          = 2026-03-13T13:58:49.274400
MEAN_MOTION    = 14.80462334
ECCENTRICITY   = .0002039
INCLINATION    = 99.8406
RA_OF_ASC_NODE = 112.9857
ARG_OF_PERICENTER = 106.8802
MEAN_ANOMALY   = 45.9047

EPHEMERIS_TYPE = 0
CLASSIFICATION_TYPE = U
NORAD_CAT_ID   = 85023
ELEMENT_SET_NO = 999
REV_AT_EPOCH   = 64224
BSTAR          = .41126E-2
MEAN_MOTION_DOT = .31529E-3
MEAN_MOTION_DDOT = 0

